[{"OBJECT_NAME":"STARLINK-31470","OBJECT_ID":"2024-076F","EPOCH":"2026-03-09T05:48:55.980576","MEAN_MOTION":15.27568468,"ECCENTRICITY":0.00015179,"INCLINATION":43.0015,"RA_OF_ASC_NODE":8.1268,"ARG_OF_PERICENTER":254.4295,"MEAN_ANOMALY":105.639,"EPHEMERIS_TYPE":0,"CLASSIFICATION_TYPE":"U","NORAD_CAT_ID":59569,"ELEMENT_SET_NO":999,"REV_AT_EPOCH":10638,"BSTAR":-0.00012461591,"MEAN_MOTION_DOT":-3.688e-5,"MEAN_MOTION_DDOT":0},{"OBJECT_NAME":"OBJECT A","OBJECT_ID":"2024-203A","EPOCH":"2026-03-09T23:31:20.812800","MEAN_MOTION":15.27300571,"ECCENTRICITY":0.00108989,"INCLINATION":97.4288,"RA_OF_ASC_NODE":139.5608,"ARG_OF_PERICENTER":322.6893,"MEAN_ANOMALY":37.3588,"EPHEMERIS_TYPE":0,"CLASSIFICATION_TYPE":"U","NORAD_CAT_ID":61869,"ELEMENT_SET_NO":999,"REV_AT_EPOCH":7380,"BSTAR":0.00061472876,"MEAN_MOTION_DOT":0.00016411,"MEAN_MOTION_DDOT":0}]
